OBJECT_NAME,OBJECT_ID,EPOCH,MEAN_MOTION,ECCENTRICITY,INCLINATION,RA_OF_ASC_NODE,ARG_OF_PERICENTER,MEAN_ANOMALY,EPHEMERIS_TYPE,CLASSIFICATION_TYPE,NORAD_CAT_ID,ELEMENT_SET_NO,REV_AT_EPOCH,BSTAR,MEAN_MOTION_DOT,MEAN_MOTION_DDOT
ONEWEB-0639,2023-029H,2026-06-18T14:58:39.768960,13.19725523,.0001375,87.9170,304.6895,129.5455,230.5799,0,U,55803,999,15909,.4658E-4,.32E-6,0
ONEWEB-0640,2023-029J,2026-06-18T14:53:28.602816,13.14503411,.0001322,87.8955,289.4567,85.5510,274.5771,0,U,55804,999,15960,.4704E-3,.187E-5,0
ONEWEB-0641,2023-029K,2026-06-18T14:51:49.749984,13.19725348,.0001799,87.9180,304.6797,103.9402,256.1931,0,U,55805,999,15910,.19054E-3,.89E-6,0
ONEWEB-0642,2023-029L,2026-06-18T07:28:18.708096,13.19724701,.0001623,87.9171,304.7526,126.3353,233.7929,0,U,55806,999,15905,.18359E-3,.86E-6,0
ONEWEB-0643,2023-029M,2026-06-18T14:10:05.611008,13.14503683,.0001969,87.8956,289.4497,121.2329,238.8994,0,U,55807,999,15957,-.51042E-3,-.176E-5,0
ONEWEB-0644,2023-029N,2026-06-18T14:38:11.086656,13.19724869,.0001771,87.9170,304.6946,109.9478,250.1846,0,U,55808,999,15909,.16176E-3,.78E-6,0
ONEWEB-0645,2023-029P,2026-06-18T15:10:01.592832,13.19724471,.0001445,87.9170,304.6873,102.5453,257.5841,0,U,55809,999,15909,.27048E-3,.121E-5,0
ONEWEB-0646,2023-029Q,2026-06-18T15:35:03.596352,13.19724968,.0001799,87.9171,304.6839,108.3815,251.7513,0,U,55810,999,15908,.39121E-4,.29E-6,0
ONEWEB-0648,2023-029R,2026-06-18T13:24:24.312672,13.14501753,.0001192,87.8970,289.4300,123.4124,236.7120,0,U,55811,999,15957,.11144E-2,.426E-5,0
ONEWEB-0649,2023-029S,2026-06-18T08:54:43.901280,13.19725376,.0001619,87.9170,304.7369,102.6474,257.4840,0,U,55812,999,15908,-.63166E-4,-.12E-6,0
ONEWEB-0650,2023-029T,2026-06-18T06:58:43.017024,13.19725116,.0001605,87.9169,304.7554,115.0062,245.1238,0,U,55813,999,15904,-.77429E-4,-.18E-6,0
ONEWEB-0652,2023-029U,2026-06-18T14:46:36.009984,13.14502885,.0002066,87.8961,289.4258,98.6894,261.4470,0,U,55814,999,15955,-.32893E-3,-.109E-5,0
ONEWEB-0653,2023-029V,2026-06-18T14:23:46.555296,13.14503816,.0001895,87.8966,289.4269,97.9724,262.1621,0,U,55815,999,15958,-.16428E-3,-.48E-6,0
ONEWEB-0654,2023-029W,2026-06-18T06:58:29.195616,13.14503994,.0002109,87.8964,289.4848,92.2318,267.9053,0,U,55816,999,15956,-.35609E-3,-.119E-5,0
ONEWEB-0656,2023-029X,2026-06-18T13:37:57.535392,13.20772994,.0002287,87.9202,274.1544,91.6986,268.4409,0,U,55817,999,16133,.33886E-4,.27E-6,0
ONEWEB-0657,2023-029Y,2026-06-17T21:46:02.477568,13.19724891,.00025253,87.9171,304.8304,100.8083,259.3334,0,U,55818,999,15900,-.24242433E-4,.3E-7,0
ONEWEB-0658,2023-029Z,2026-06-18T15:50:58.590240,13.19725663,.000174,87.9181,304.6563,111.0676,249.0643,0,U,55819,999,15911,.23377E-3,.107E-5,0
ONEWEB-0660,2023-029AA,2026-06-18T06:26:31.361856,13.14503379,.000157,87.8975,289.4822,99.0108,261.1199,0,U,55820,999,15954,-.7386E-4,-.15E-6,0
ONEWEB-0661,2023-029AB,2026-06-18T14:35:12.780384,13.14503506,.0001625,87.8957,289.4594,95.0512,265.0803,0,U,55821,999,15957,.54565E-4,.33E-6,0
ONEWEB-0662,2023-029AC,2026-06-18T06:17:24.004032,13.14502857,.0001585,87.8955,289.5343,99.7257,260.4051,0,U,55822,999,15957,.3511E-3,.143E-5,0
ONEWEB-0663,2023-029AD,2026-06-18T16:15:25.364160,13.20869541,.0001595,87.9200,274.2043,108.4874,251.6433,0,U,55823,999,16134,-.53929E-4,-.9E-7,0
ONEWEB-0664,2023-029AE,2026-06-18T13:18:34.314048,13.20770213,.0001793,87.9187,274.2100,87.6223,272.5115,0,U,55824,999,16132,.28952E-3,.131E-5,0
ONEWEB-0665,2023-029AF,2026-06-18T14:30:38.678112,13.14503624,.0001555,87.8958,289.4407,102.7985,257.3318,0,U,55825,999,15959,-.24781E-3,-.79E-6,0
ONEWEB-0666,2023-029AG,2026-06-18T07:41:36.263040,13.20771615,.0002681,87.9186,274.2464,103.4975,256.6458,0,U,55826,999,16130,.12E-3,.62E-6,0
ONEWEB-0667,2023-029AH,2026-06-18T13:01:36.431328,13.20772175,.0001823,87.9200,274.1602,98.6772,261.4568,0,U,55827,999,16132,.32038E-3,.143E-5,0
ONEWEB-0669,2023-029AJ,2026-06-18T12:54:19.643040,13.20772557,.0002222,87.9192,274.1724,86.1697,273.9691,0,U,55828,999,16132,.30683E-3,.138E-5,0
ONEWEB-0670,2023-029AK,2026-06-18T13:58:40.507392,13.14503420,.0001653,87.8957,289.4624,90.3469,269.7850,0,U,55829,999,15961,-.17009E-3,-.5E-6,0
ONEWEB-0671,2023-029AL,2026-06-18T15:44:08.343168,13.19724641,.0001709,87.9172,304.6830,98.0253,262.1074,0,U,55830,999,15909,.98972E-4,.53E-6,0
ONEWEB-0672,2023-029AM,2026-06-18T16:25:13.495008,13.20772312,.0002251,87.9194,274.1365,98.5382,261.6006,0,U,55831,999,16134,.69E-4,.41E-6,0
ONEWEB-0673,2023-029AN,2026-06-18T15:11:09.015072,13.19727585,.000174,87.9179,304.6793,96.9252,263.2079,0,U,55832,999,15909,.26247E-3,.118E-5,0
