ONEWEB-0639             
1 55803U 23029H   26169.62407140  .00000032  00000+0  46580-4 0  9996
2 55803  87.9170 304.6895 0001375 129.5455 230.5799 13.19725523159094
ONEWEB-0640             
1 55804U 23029J   26169.62046994  .00000187  00000+0  47040-3 0  9995
2 55804  87.8955 289.4567 0001322  85.5510 274.5771 13.14503411159606
ONEWEB-0641             
1 55805U 23029K   26169.61932581  .00000089  00000+0  19054-3 0  9996
2 55805  87.9180 304.6797 0001799 103.9402 256.1931 13.19725348159105
ONEWEB-0642             
1 55806U 23029L   26169.31132764  .00000086  00000+0  18359-3 0  9993
2 55806  87.9171 304.7526 0001623 126.3353 233.7929 13.19724701159051
ONEWEB-0643             
1 55807U 23029M   26169.59034272 -.00000176  00000+0 -51042-3 0  9997
2 55807  87.8956 289.4497 0001969 121.2329 238.8994 13.14503683159572
ONEWEB-0644             
1 55808U 23029N   26169.60985054  .00000078  00000+0  16176-3 0  9991
2 55808  87.9170 304.6946 0001771 109.9478 250.1846 13.19724869159096
ONEWEB-0645             
1 55809U 23029P   26169.63196288  .00000121  00000+0  27048-3 0  9997
2 55809  87.9170 304.6873 0001445 102.5453 257.5841 13.19724471159091
ONEWEB-0646             
1 55810U 23029Q   26169.64934718  .00000029  00000+0  39121-4 0  9991
2 55810  87.9171 304.6839 0001799 108.3815 251.7513 13.19724968159086
ONEWEB-0648             
1 55811U 23029R   26169.55861473  .00000426  00000+0  11144-2 0  9993
2 55811  87.8970 289.4300 0001192 123.4124 236.7120 13.14501753159575
ONEWEB-0649             
1 55812U 23029S   26169.37134145 -.00000012  00000+0 -63166-4 0  9999
2 55812  87.9170 304.7369 0001619 102.6474 257.4840 13.19725376159085
ONEWEB-0650             
1 55813U 23029T   26169.29077566 -.00000018  00000+0 -77429-4 0  9997
2 55813  87.9169 304.7554 0001605 115.0062 245.1238 13.19725116159049
ONEWEB-0652             
1 55814U 23029U   26169.61569456 -.00000109  00000+0 -32893-3 0  9994
2 55814  87.8961 289.4258 0002066  98.6894 261.4470 13.14502885159556
ONEWEB-0653             
1 55815U 23029V   26169.59984439 -.00000048  00000+0 -16428-3 0  9992
2 55815  87.8966 289.4269 0001895  97.9724 262.1621 13.14503816159581
ONEWEB-0654             
1 55816U 23029W   26169.29061569 -.00000119  00000+0 -35609-3 0  9991
2 55816  87.8964 289.4848 0002109  92.2318 267.9053 13.14503994159566
ONEWEB-0656             
1 55817U 23029X   26169.56802703  .00000027  00000+0  33886-4 0  9997
2 55817  87.9202 274.1544 0002287  91.6986 268.4409 13.20772994161332
ONEWEB-0657             
1 55818U 23029Y   26168.90697312  .00000003  00000+0 -24242-4 0  9994
2 55818  87.9171 304.8304 0002525 100.8083 259.3334 13.19724891159007
ONEWEB-0658             
1 55819U 23029Z   26169.66040035  .00000107  00000+0  23377-3 0  9994
2 55819  87.9181 304.6563 0001740 111.0676 249.0643 13.19725663159113
ONEWEB-0660             
1 55820U 23029AA  26169.26841854 -.00000015  00000+0 -73860-4 0  9993
2 55820  87.8975 289.4822 0001570  99.0108 261.1199 13.14503379159540
ONEWEB-0661             
1 55821U 23029AB  26169.60778681  .00000033  00000+0  54565-4 0  9998
2 55821  87.8957 289.4594 0001625  95.0512 265.0803 13.14503506159573
ONEWEB-0662             
1 55822U 23029AC  26169.26208338  .00000143  00000+0  35110-3 0  9994
2 55822  87.8955 289.5343 0001585  99.7257 260.4051 13.14502857159579
ONEWEB-0663             
1 55823U 23029AD  26169.67737690 -.00000009  00000+0 -53929-4 0  9990
2 55823  87.9200 274.2043 0001595 108.4874 251.6433 13.20869541161343
ONEWEB-0664             
1 55824U 23029AE  26169.55456382  .00000131  00000+0  28952-3 0  9995
2 55824  87.9187 274.2100 0001793  87.6223 272.5115 13.20770213161322
ONEWEB-0665             
1 55825U 23029AF  26169.60461433 -.00000079  00000+0 -24781-3 0  9994
2 55825  87.8958 289.4407 0001555 102.7985 257.3318 13.14503624159591
ONEWEB-0666             
1 55826U 23029AG  26169.32055860  .00000062  00000+0  12000-3 0  9998
2 55826  87.9186 274.2464 0002681 103.4975 256.6458 13.20771615161302
ONEWEB-0667             
1 55827U 23029AH  26169.54278277  .00000143  00000+0  32038-3 0  9995
2 55827  87.9200 274.1602 0001823  98.6772 261.4568 13.20772175161320
ONEWEB-0669             
1 55828U 23029AJ  26169.53772735  .00000138  00000+0  30683-3 0  9991
2 55828  87.9192 274.1724 0002222  86.1697 273.9691 13.20772557161327
ONEWEB-0670             
1 55829U 23029AK  26169.58241328 -.00000050  00000+0 -17009-3 0  9998
2 55829  87.8957 289.4624 0001653  90.3469 269.7850 13.14503420159618
ONEWEB-0671             
1 55830U 23029AL  26169.65565212  .00000053  00000+0  98972-4 0  9999
2 55830  87.9172 304.6830 0001709  98.0253 262.1074 13.19724641159099
ONEWEB-0672             
1 55831U 23029AM  26169.68418397  .00000041  00000+0  69000-4 0  9991
2 55831  87.9194 274.1365 0002251  98.5382 261.6006 13.20772312161349
ONEWEB-0673             
1 55832U 23029AN  26169.63274323  .00000118  00000+0  26247-3 0  9996
2 55832  87.9179 304.6793 0001740  96.9252 263.2079 13.19727585159094
